NORAD_CAT_ID,OBJECT_NAME,OBJECT_TYPE,EPOCH,MEAN_MOTION,ECCENTRICITY,INCLINATION,RA_OF_ASC_NODE,ARG_OF_PERICENTER,MEAN_ANOMALY,BSTAR,MEAN_MOTION_DOT,MEAN_MOTION_DDOT,TLE_LINE0,TLE_LINE1,TLE_LINE2,SEMIMAJOR_AXIS,PERIOD,APOGEE,PERIGEE,DECAYED
49757.0,STARLINK-3197,PAYLOAD,2022-11-02 11:46:23,15.08835059,0.0001943999999999,53.2156,230.2711,42.708,317.4063,0.00011384,1.524e-05,0.0,0 STARLINK-3197,1 49757U 21115AK  22306.49055242  .00001524  00000-0  11384-3 0  9998,2 49757  53.2156 230.2711 0001944  42.7080 317.4063 15.08835059 51016,6917.895,95.438,541.105,538.4159999999998,0.0
49757.0,STARLINK-3197,PAYLOAD,2022-11-03 03:40:15,15.08845182,0.0001882,53.2176,227.2999,49.8068,310.3089,-0.00019077,-3.323e-05,0.0,0 STARLINK-3197,1 49757U 21115AK  22307.15295663 -.00003323  00000-0 -19077-3 0  9993,2 49757  53.2176 227.2999 0001882  49.8068 310.3089 15.08845182 52229,6917.865,95.437,541.031,538.428,0.0
49757.0,STARLINK-3197,PAYLOAD,2022-11-03 19:34:05,15.08852617,0.0002086,53.2162,224.3244,43.9442,316.1716,0.00023871,3.514e-05,0.0,0 STARLINK-3197,1 49757U 21115AK  22307.81534607  .00003514  00000-0  23871-3 0  9997,2 49757  53.2162 224.3244 0002086  43.9442 316.1716 15.08852617 52326,6917.842,95.437,541.15,538.264,0.0
49757.0,STARLINK-3197,PAYLOAD,2022-11-04 11:27:56,15.08859068,0.0002005,53.2152,221.35,44.5141,315.6012,0.00043673,6.673e-05,0.0,0 STARLINK-3197,1 49757U 21115AK  22308.47774244  .00006673  00000-0  43673-3 0  9994,2 49757  53.2152 221.3500 0002005  44.5141 315.6012 15.08859068 51319,6917.821999999999,95.436,541.0740000000002,538.3,0.0
49757.0,STARLINK-3197,PAYLOAD,2022-11-04 19:24:52,15.08847382,0.0002234,53.2164,219.8632,47.3918,312.7262,0.0001152,1.546e-05,0.0,0 STARLINK-3197,1 49757U 21115AK  22308.80894386  .00001546  00000-0  11520-3 0  9991,2 49757  53.2164 219.8632 0002234  47.3918 312.7262 15.08847382 52476,6917.858,95.437,541.268,538.177,0.0
49757.0,STARLINK-3197,PAYLOAD,2022-11-05 11:18:45,15.08833801,0.0002029,53.2165,216.8894,44.9323,315.1833,-7.342e-05,-1.456e-05,0.0,0 STARLINK-3197,1 49757U 21115AK  22309.47135665 -.00001456  00000-0 -73420-4 0  9993,2 49757  53.2165 216.8894 0002029  44.9323 315.1833 15.08833801 52572,6917.899,95.438,541.168,538.361,0.0
49757.0,STARLINK-3197,PAYLOAD,2022-11-06 03:12:37,15.08830928,0.0002065,53.217,213.9166,47.3274,312.7891,-0.00015287,-2.72e-05,0.0,0 STARLINK-3197,1 49757U 21115AK  22310.13376714 -.00002720  00000-0 -15287-3 0  9991,2 49757  53.2170 213.9166 0002065  47.3274 312.7891 15.08830928 52675,6917.908,95.438,541.202,538.345,0.0
49757.0,STARLINK-3197,PAYLOAD,2022-11-06 04:48:00,15.08830828,0.0002036,53.2168,213.6192,50.4569,309.6603,-0.00012141,-2.219e-05,0.0,0 STARLINK-3197,1 49757U 21115AK  22310.20000687 -.00002219  00000-0 -12141-3 0  9991,2 49757  53.2168 213.6192 0002036  50.4569 309.6603 15.08830828 51571,6917.908,95.438,541.182,538.365,0.0
49757.0,STARLINK-3197,PAYLOAD,2022-11-06 20:41:50,15.08840139,0.0002021,53.2165,210.646,43.9652,316.1501,8.8884e-05,1.127e-05,0.0,0 STARLINK-3197,1 49757U 21115AK  22310.86239580  .00001127  00000-0  88884-4 0  9992,2 49757  53.2165 210.6460 0002021  43.9652 316.1501 15.08840139 52787,6917.88,95.438,541.143,538.347,0.0
49757.0,STARLINK-3197,PAYLOAD,2022-11-07 11:00:20,15.08830479,0.0001703,53.2157,207.97,48.8295,311.2844,-3.9091e-05,-9.1e-06,0.0,0 STARLINK-3197,1 49757U 21115AK  22311.45856836 -.00000910  00000-0 -39091-4 0  9994,2 49757  53.2157 207.9700 0001703  48.8295 311.2844 15.08830479 52879,6917.909000000002,95.438,540.953,538.596,0.0
49757.0,STARLINK-3197,PAYLOAD,2022-11-07 20:32:39,15.08821545,0.0002048,53.2168,206.1865,39.6785,320.4357,0.00028429,4.237e-05,0.0,0 STARLINK-3197,1 49757U 21115AK  22311.85601064  .00004237  00000-0  28429-3 0  9995,2 49757  53.2168 206.1865 0002048  39.6785 320.4357 15.08821545 51828,6917.937,95.439,541.219,538.385,0.0
49757.0,STARLINK-3197,PAYLOAD,2022-11-08 02:54:11,15.0883039,0.0002046,53.2156,204.9946,50.6254,309.4919,0.00030696,4.599e-05,0.0,0 STARLINK-3197,1 49757U 21115AK  22312.12096684  .00004599  00000-0  30696-3 0  9992,2 49757  53.2156 204.9946 0002046  50.6254 309.4919 15.08830390 52979,6917.91,95.438,541.19,538.359,0.0
49757.0,STARLINK-3197,PAYLOAD,2022-11-08 17:12:37,15.0886293,0.0002183,53.2148,202.3192,48.7265,311.3915,0.00025644,3.798e-05,0.0,0 STARLINK-3197,1 49757U 21115AK  22312.71710408  .00003798  00000-0  25644-3 0  9991,2 49757  53.2148 202.3192 0002183  48.7265 311.3915 15.08862930 53061,6917.81,95.436,541.185,538.165,0.0
49757.0,STARLINK-3197,PAYLOAD,2022-11-08 20:23:23,15.08872104,0.0002132,53.2156,201.7234,50.1501,309.9678,0.00023457,3.45e-05,0.0,0 STARLINK-3197,1 49757U 21115AK  22312.84957888  .00003450  00000-0  23457-3 0  9995,2 49757  53.2156 201.7234 0002132  50.1501 309.9678 15.08872104 51975,6917.781999999997,95.436,541.122,538.172,0.0
49757.0,STARLINK-3197,PAYLOAD,2022-11-08 23:34:10,15.08875497,0.0002207,53.215,201.1288,50.3582,309.7605,0.00038538,5.856e-05,0.0,0 STARLINK-3197,1 49757U 21115AK  22312.98206254  .00005856  00000-0  38538-3 0  9992,2 49757  53.2150 201.1288 0002207  50.3582 309.7605 15.08875497 51994,6917.772,95.435,541.164,538.11,0.0
49757.0,STARLINK-3197,PAYLOAD,2022-11-09 20:14:11,15.08849166,0.0001447,53.2162,197.2654,67.0022,293.1122,-6.069e-08,-2.89e-06,0.0,0 STARLINK-3197,1 49757U 21115AK  22313.84318620 -.00000289  00000-0 -60690-7 0  9994,2 49757  53.2162 197.2654 0001447  67.0022 293.1122 15.08849166 53231,6917.852,95.437,540.7180000000002,538.716,0.0
49757.0,STARLINK-3197,PAYLOAD,2022-11-10 08:57:16,15.08843873,0.0001965,53.2155,194.8849,43.697,316.4178,-0.00021641,-3.731e-05,0.0,0 STARLINK-3197,1 49757U 21115AK  22314.37310568 -.00003731  00000-0 -21641-3 0  9990,2 49757  53.2155 194.8849 0001965  43.6970 316.4178 15.08843873 52204,6917.869000000002,95.437,541.0930000000002,538.374,0.0
49757.0,STARLINK-3197,PAYLOAD,2022-11-10 20:04:58,15.08837043,0.0002078,53.2151,192.8041,43.3293,316.7862,-0.00029303,-4.949e-05,0.0,0 STARLINK-3197,1 49757U 21115AK  22314.83678816 -.00004949  00000-0 -29303-3 0  9999,2 49757  53.2151 192.8041 0002078  43.3293 316.7862 15.08837043 52275,6917.889,95.438,541.192,538.317,0.0
49757.0,STARLINK-3197,PAYLOAD,2022-11-11 04:01:54,15.08824335,0.0002157,53.2149,191.3171,43.7718,316.3445,-0.0003687,-6.149e-05,0.0,0 STARLINK-3197,1 49757U 21115AK  22315.16799672 -.00006149  00000-0 -36870-3 0  9991,2 49757  53.2149 191.3171 0002157  43.7718 316.3445 15.08824335 53436,6917.928000000001,95.439,541.285,538.3009999999998,0.0
49757.0,STARLINK-3197,PAYLOAD,2022-11-11 08:48:04,15.08818797,0.0001801,53.2149,190.4251,43.0111,317.1021,-0.00013019,-2.358e-05,0.0,0 STARLINK-3197,1 49757U 21115AK  22315.36672372 -.00002358  00000-0 -13019-3 0  9998,2 49757  53.2149 190.4251 0001801  43.0111 317.1021 15.08818797 52354,6917.945,95.439,541.056,538.564,0.0
49757.0,STARLINK-3197,PAYLOAD,2022-11-11 19:55:48,15.08788495,0.0001984,53.2147,188.3437,49.5547,310.5617,0.0010885,0.00017054,0.0,0 STARLINK-3197,1 49757U 21115AK  22315.83042463  .00017054  00000-0  10885-2 0  9996,2 49757  53.2147 188.3437 0001984  49.5547 310.5617 15.08788495 53530,6918.038000000001,95.441,541.275,538.53,0.0
49757.0,STARLINK-3197,PAYLOAD,2022-11-11 21:31:10,15.08825226,0.0001884,53.2148,188.0461,43.3417,316.7723,0.00010539,1.389e-05,0.0,0 STARLINK-3197,1 49757U 21115AK  22315.89664760  .00001389  00000-0  10539-3 0  9993,2 49757  53.2148 188.0461 0001884  43.3417 316.7723 15.08825226 52430,6917.926,95.438,541.094,538.487,0.0
49757.0,STARLINK-3197,PAYLOAD,2022-11-12 03:52:43,15.08824925,0.0002057,53.2145,186.8568,49.7082,310.409,0.00070974,0.00011021,0.0,0 STARLINK-3197,1 49757U 21115AK  22316.16161431  .00011021  00000-0  70974-3 0  9994,2 49757  53.2145 186.8568 0002057  49.7082 310.4090 15.08824925 53582,6917.926,95.439,541.214,538.368,0.0
49757.0,STARLINK-3197,PAYLOAD,2022-11-12 21:21:57,15.08850673,0.0001956,53.2142,183.5857,44.0102,316.1046,0.0006085,9.412e-05,0.0,0 STARLINK-3197,1 49757U 21115AK  22316.89024630  .00009412  00000-0  60850-3 0  9996,2 49757  53.2142 183.5857 0001956  44.0102 316.1046 15.08850673 52584,6917.848000000001,95.437,541.066,538.36,0.0
49757.0,STARLINK-3197,PAYLOAD,2022-11-13 02:08:06,15.08861198,0.0002,53.214,182.6936,44.5377,315.5775,0.00076291,0.00011882,0.0,0 STARLINK-3197,1 49757U 21115AK  22317.08896383  .00011882  00000-0  76291-3 0  9990,2 49757  53.2140 182.6936 0002000  44.5377 315.5775 15.08861198 53723,6917.816,95.436,541.064,538.297,0.0
49757.0,STARLINK-3197,PAYLOAD,2022-11-13 08:29:39,15.08849166,0.000194,53.214,181.5025,44.8709,315.2439,0.00017406,2.484e-05,0.0,0 STARLINK-3197,1 49757U 21115AK  22317.35392418  .00002484  00000-0  17406-3 0  9991,2 49757  53.2140 181.5025 0001940  44.8709 315.2439 15.08849166 53763,6917.852,95.437,541.059,538.375,0.0
49757.0,STARLINK-3197,PAYLOAD,2022-11-13 18:01:58,15.08845773,0.0001888,53.2141,179.7201,44.0829,316.0314,0.0002226,3.257e-05,0.0,0 STARLINK-3197,1 49757U 21115AK  22317.75136713  .00003257  00000-0  22260-3 0  9992,2 49757  53.2141 179.7201 0001888  44.0829 316.0314 15.08845773 53823,6917.863,95.437,541.034,538.422,0.0
49757.0,STARLINK-3197,PAYLOAD,2022-11-14 08:20:26,15.08838646,0.0001973,53.2142,177.0433,44.4058,315.7092,0.00049034,7.524e-05,0.0,0 STARLINK-3197,1 49757U 21115AK  22318.34753038  .00007524  00000-0  49034-3 0  9992,2 49757  53.2142 177.0433 0001973  44.4058 315.7092 15.08838646 53915,6917.885,95.438,541.114,538.385,0.0
49757.0,STARLINK-3197,PAYLOAD,2022-11-14 17:52:45,15.08844976,0.0001978,53.2141,175.2585,47.1284,312.9874,0.00058412,9.022e-05,0.0,0 STARLINK-3197,1 49757U 21115AK  22318.74496975  .00009022  00000-0  58412-3 0  9995,2 49757  53.2141 175.2585 0001978  47.1284 312.9874 15.08844976 52861,6917.865,95.437,541.099,538.362,0.0
